<?xml version="1.0" encoding="UTF-8"?>
<ndm xmlns:xsi="http://www.w3.org/2001/XMLSchema-instance" xsi:noNamespaceSchemaLocation="https://sanaregistry.org/r/ndmxml_unqualified/ndmxml-2.0.0-master-2.0.xsd">
<omm id="CCSDS_OMM_VERS" version="2.0">
<header><CREATION_DATE/><ORIGINATOR/></header><body><segment><metadata><OBJECT_NAME>ORBCOMM FM20</OBJECT_NAME><OBJECT_ID>1998-046D</OBJECT_ID><CENTER_NAME>EARTH</CENTER_NAME><REF_FRAME>TEME</REF_FRAME><TIME_SYSTEM>UTC</TIME_SYSTEM><MEAN_ELEMENT_THEORY>SGP4</MEAN_ELEMENT_THEORY></metadata><data><meanElements><EPOCH>2025-12-22T07:54:50.934816</EPOCH><MEAN_MOTION>14.37683920</MEAN_MOTION><ECCENTRICITY>.00021998</ECCENTRICITY><INCLINATION>44.9952</INCLINATION><RA_OF_ASC_NODE>9.9811</RA_OF_ASC_NODE><ARG_OF_PERICENTER>251.0205</ARG_OF_PERICENTER><MEAN_ANOMALY>109.0405</MEAN_ANOMALY></meanElements><tleParameters><EPHEMERIS_TYPE>0</EPHEMERIS_TYPE><CLASSIFICATION_TYPE>U</CLASSIFICATION_TYPE><NORAD_CAT_ID>25416</NORAD_CAT_ID><ELEMENT_SET_NO>999</ELEMENT_SET_NO><REV_AT_EPOCH>43133</REV_AT_EPOCH><BSTAR>.32698546E-3</BSTAR><MEAN_MOTION_DOT>.85E-5</MEAN_MOTION_DOT><MEAN_MOTION_DDOT>0</MEAN_MOTION_DDOT></tleParameters></data></segment></body></omm>
<omm id="CCSDS_OMM_VERS" version="2.0">
<header><CREATION_DATE/><ORIGINATOR/></header><body><segment><metadata><OBJECT_NAME>ORBCOMM FM16</OBJECT_NAME><OBJECT_ID>1998-046E</OBJECT_ID><CENTER_NAME>EARTH</CENTER_NAME><REF_FRAME>TEME</REF_FRAME><TIME_SYSTEM>UTC</TIME_SYSTEM><MEAN_ELEMENT_THEORY>SGP4</MEAN_ELEMENT_THEORY></metadata><data><meanElements><EPOCH>2025-12-23T06:33:07.022016</EPOCH><MEAN_MOTION>14.39558796</MEAN_MOTION><ECCENTRICITY>.00041829</ECCENTRICITY><INCLINATION>44.9949</INCLINATION><RA_OF_ASC_NODE>354.4892</RA_OF_ASC_NODE><ARG_OF_PERICENTER>204.3025</ARG_OF_PERICENTER><MEAN_ANOMALY>155.7627</MEAN_ANOMALY></meanElements><tleParameters><EPHEMERIS_TYPE>0</EPHEMERIS_TYPE><CLASSIFICATION_TYPE>U</CLASSIFICATION_TYPE><NORAD_CAT_ID>25417</NORAD_CAT_ID><ELEMENT_SET_NO>999</ELEMENT_SET_NO><REV_AT_EPOCH>43149</REV_AT_EPOCH><BSTAR>.42591832E-3</BSTAR><MEAN_MOTION_DOT>.1199E-4</MEAN_MOTION_DOT><MEAN_MOTION_DDOT>0</MEAN_MOTION_DDOT></tleParameters></data></segment></body></omm>
<omm id="CCSDS_OMM_VERS" version="2.0">
<header><CREATION_DATE/><ORIGINATOR/></header><body><segment><metadata><OBJECT_NAME>ORBCOMM FM15</OBJECT_NAME><OBJECT_ID>1998-046F</OBJECT_ID><CENTER_NAME>EARTH</CENTER_NAME><REF_FRAME>TEME</REF_FRAME><TIME_SYSTEM>UTC</TIME_SYSTEM><MEAN_ELEMENT_THEORY>SGP4</MEAN_ELEMENT_THEORY></metadata><data><meanElements><EPOCH>2025-12-23T00:27:50.080896</EPOCH><MEAN_MOTION>14.39186682</MEAN_MOTION><ECCENTRICITY>.00040097</ECCENTRICITY><INCLINATION>44.9979</INCLINATION><RA_OF_ASC_NODE>1.4169</RA_OF_ASC_NODE><ARG_OF_PERICENTER>205.2516</ARG_OF_PERICENTER><MEAN_ANOMALY>154.8137</MEAN_ANOMALY></meanElements><tleParameters><EPHEMERIS_TYPE>0</EPHEMERIS_TYPE><CLASSIFICATION_TYPE>U</CLASSIFICATION_TYPE><NORAD_CAT_ID>25418</NORAD_CAT_ID><ELEMENT_SET_NO>999</ELEMENT_SET_NO><REV_AT_EPOCH>43144</REV_AT_EPOCH><BSTAR>.38940836E-3</BSTAR><MEAN_MOTION_DOT>.1075E-4</MEAN_MOTION_DOT><MEAN_MOTION_DDOT>0</MEAN_MOTION_DDOT></tleParameters></data></segment></body></omm>
<omm id="CCSDS_OMM_VERS" version="2.0">
<header><CREATION_DATE/><ORIGINATOR/></header><body><segment><metadata><OBJECT_NAME>ORBCOMM FM14</OBJECT_NAME><OBJECT_ID>1998-046G</OBJECT_ID><CENTER_NAME>EARTH</CENTER_NAME><REF_FRAME>TEME</REF_FRAME><TIME_SYSTEM>UTC</TIME_SYSTEM><MEAN_ELEMENT_THEORY>SGP4</MEAN_ELEMENT_THEORY></metadata><data><meanElements><EPOCH>2025-12-23T01:20:30.611040</EPOCH><MEAN_MOTION>14.39606704</MEAN_MOTION><ECCENTRICITY>.00028435</ECCENTRICITY><INCLINATION>44.9968</INCLINATION><RA_OF_ASC_NODE>358.9021</RA_OF_ASC_NODE><ARG_OF_PERICENTER>214.9945</ARG_OF_PERICENTER><MEAN_ANOMALY>145.0717</MEAN_ANOMALY></meanElements><tleParameters><EPHEMERIS_TYPE>0</EPHEMERIS_TYPE><CLASSIFICATION_TYPE>U</CLASSIFICATION_TYPE><NORAD_CAT_ID>25419</NORAD_CAT_ID><ELEMENT_SET_NO>999</ELEMENT_SET_NO><REV_AT_EPOCH>43142</REV_AT_EPOCH><BSTAR>.39281536E-3</BSTAR><MEAN_MOTION_DOT>.1096E-4</MEAN_MOTION_DOT><MEAN_MOTION_DDOT>0</MEAN_MOTION_DDOT></tleParameters></data></segment></body></omm>
<omm id="CCSDS_OMM_VERS" version="2.0">
<header><CREATION_DATE/><ORIGINATOR/></header><body><segment><metadata><OBJECT_NAME>ORBCOMM FM13</OBJECT_NAME><OBJECT_ID>1998-046H</OBJECT_ID><CENTER_NAME>EARTH</CENTER_NAME><REF_FRAME>TEME</REF_FRAME><TIME_SYSTEM>UTC</TIME_SYSTEM><MEAN_ELEMENT_THEORY>SGP4</MEAN_ELEMENT_THEORY></metadata><data><meanElements><EPOCH>2025-12-23T01:31:32.912832</EPOCH><MEAN_MOTION>14.38220088</MEAN_MOTION><ECCENTRICITY>.00040999</ECCENTRICITY><INCLINATION>44.9985</INCLINATION><RA_OF_ASC_NODE>8.7633</RA_OF_ASC_NODE><ARG_OF_PERICENTER>175.2392</ARG_OF_PERICENTER><MEAN_ANOMALY>184.8496</MEAN_ANOMALY></meanElements><tleParameters><EPHEMERIS_TYPE>0</EPHEMERIS_TYPE><CLASSIFICATION_TYPE>U</CLASSIFICATION_TYPE><NORAD_CAT_ID>25420</NORAD_CAT_ID><ELEMENT_SET_NO>999</ELEMENT_SET_NO><REV_AT_EPOCH>43042</REV_AT_EPOCH><BSTAR>.35511443E-3</BSTAR><MEAN_MOTION_DOT>.947E-5</MEAN_MOTION_DOT><MEAN_MOTION_DDOT>0</MEAN_MOTION_DDOT></tleParameters></data></segment></body></omm>
<omm id="CCSDS_OMM_VERS" version="2.0">
<header><CREATION_DATE/><ORIGINATOR/></header><body><segment><metadata><OBJECT_NAME>ORBCOMM FM21</OBJECT_NAME><OBJECT_ID>1998-053A</OBJECT_ID><CENTER_NAME>EARTH</CENTER_NAME><REF_FRAME>TEME</REF_FRAME><TIME_SYSTEM>UTC</TIME_SYSTEM><MEAN_ELEMENT_THEORY>SGP4</MEAN_ELEMENT_THEORY></metadata><data><meanElements><EPOCH>2025-12-22T23:28:34.897152</EPOCH><MEAN_MOTION>14.37815611</MEAN_MOTION><ECCENTRICITY>.00015775</ECCENTRICITY><INCLINATION>45.0079</INCLINATION><RA_OF_ASC_NODE>95.1528</RA_OF_ASC_NODE><ARG_OF_PERICENTER>165.8012</ARG_OF_PERICENTER><MEAN_ANOMALY>194.2880</MEAN_ANOMALY></meanElements><tleParameters><EPHEMERIS_TYPE>0</EPHEMERIS_TYPE><CLASSIFICATION_TYPE>U</CLASSIFICATION_TYPE><NORAD_CAT_ID>25475</NORAD_CAT_ID><ELEMENT_SET_NO>999</ELEMENT_SET_NO><REV_AT_EPOCH>42441</REV_AT_EPOCH><BSTAR>.34464619E-3</BSTAR><MEAN_MOTION_DOT>.906E-5</MEAN_MOTION_DOT><MEAN_MOTION_DDOT>0</MEAN_MOTION_DDOT></tleParameters></data></segment></body></omm>
<omm id="CCSDS_OMM_VERS" version="2.0">
<header><CREATION_DATE/><ORIGINATOR/></header><body><segment><metadata><OBJECT_NAME>ORBCOMM FM22</OBJECT_NAME><OBJECT_ID>1998-053B</OBJECT_ID><CENTER_NAME>EARTH</CENTER_NAME><REF_FRAME>TEME</REF_FRAME><TIME_SYSTEM>UTC</TIME_SYSTEM><MEAN_ELEMENT_THEORY>SGP4</MEAN_ELEMENT_THEORY></metadata><data><meanElements><EPOCH>2025-12-22T22:33:43.080480</EPOCH><MEAN_MOTION>14.38990103</MEAN_MOTION><ECCENTRICITY>.00024952</ECCENTRICITY><INCLINATION>45.0074</INCLINATION><RA_OF_ASC_NODE>88.5765</RA_OF_ASC_NODE><ARG_OF_PERICENTER>131.2401</ARG_OF_PERICENTER><MEAN_ANOMALY>228.8663</MEAN_ANOMALY></meanElements><tleParameters><EPHEMERIS_TYPE>0</EPHEMERIS_TYPE><CLASSIFICATION_TYPE>U</CLASSIFICATION_TYPE><NORAD_CAT_ID>25476</NORAD_CAT_ID><ELEMENT_SET_NO>999</ELEMENT_SET_NO><REV_AT_EPOCH>42445</REV_AT_EPOCH><BSTAR>.38593557E-3</BSTAR><MEAN_MOTION_DOT>.1059E-4</MEAN_MOTION_DOT><MEAN_MOTION_DDOT>0</MEAN_MOTION_DDOT></tleParameters></data></segment></body></omm>
<omm id="CCSDS_OMM_VERS" version="2.0">
<header><CREATION_DATE/><ORIGINATOR/></header><body><segment><metadata><OBJECT_NAME>ORBCOMM FM23</OBJECT_NAME><OBJECT_ID>1998-053C</OBJECT_ID><CENTER_NAME>EARTH</CENTER_NAME><REF_FRAME>TEME</REF_FRAME><TIME_SYSTEM>UTC</TIME_SYSTEM><MEAN_ELEMENT_THEORY>SGP4</MEAN_ELEMENT_THEORY></metadata><data><meanElements><EPOCH>2025-12-22T16:10:11.270784</EPOCH><MEAN_MOTION>14.38053750</MEAN_MOTION><ECCENTRICITY>.00019395</ECCENTRICITY><INCLINATION>45.0077</INCLINATION><RA_OF_ASC_NODE>98.4174</RA_OF_ASC_NODE><ARG_OF_PERICENTER>133.0084</ARG_OF_PERICENTER><MEAN_ANOMALY>227.0927</MEAN_ANOMALY></meanElements><tleParameters><EPHEMERIS_TYPE>0</EPHEMERIS_TYPE><CLASSIFICATION_TYPE>U</CLASSIFICATION_TYPE><NORAD_CAT_ID>25477</NORAD_CAT_ID><ELEMENT_SET_NO>999</ELEMENT_SET_NO><REV_AT_EPOCH>42452</REV_AT_EPOCH><BSTAR>.35185824E-3</BSTAR><MEAN_MOTION_DOT>.933E-5</MEAN_MOTION_DOT><MEAN_MOTION_DDOT>0</MEAN_MOTION_DDOT></tleParameters></data></segment></body></omm>

</ndm>
