ORBCOMM FM20            
1 25416U 98046D   25356.32975619  .00000850  00000+0  32699-3 0  9992
2 25416  44.9952   9.9811 0002199 251.0205 109.0405 14.37683920431333
ORBCOMM FM16            
1 25417U 98046E   25357.27299794  .00001199  00000+0  42592-3 0  9991
2 25417  44.9949 354.4892 0004182 204.3025 155.7627 14.39558796431497
ORBCOMM FM15            
1 25418U 98046F   25357.01932964  .00001075  00000+0  38941-3 0  9993
2 25418  44.9979   1.4169 0004009 205.2516 154.8137 14.39186682431442
ORBCOMM FM14            
1 25419U 98046G   25357.05590985  .00001096  00000+0  39282-3 0  9993
2 25419  44.9968 358.9021 0002843 214.9945 145.0717 14.39606704431421
ORBCOMM FM13            
1 25420U 98046H   25357.06357538  .00000947  00000+0  35511-3 0  9996
2 25420  44.9985   8.7633 0004099 175.2392 184.8496 14.38220088430421
ORBCOMM FM21            
1 25475U 98053A   25356.97818168  .00000906  00000+0  34465-3 0  9996
2 25475  45.0079  95.1528 0001577 165.8012 194.2880 14.37815611424417
ORBCOMM FM22            
1 25476U 98053B   25356.94008195  .00001059  00000+0  38594-3 0  9992
2 25476  45.0074  88.5765 0002495 131.2401 228.8663 14.38990103424459
ORBCOMM FM23            
1 25477U 98053C   25356.67374156  .00000933  00000+0  35186-3 0  9990
2 25477  45.0077  98.4174 0001939 133.0084 227.0927 14.38053750424526
